[
    {
        "Altitude(m)": 612513.9006693147,
        "Argument of Periapsis(deg)": 0.0,
        "Eccentricity": 0.0,
        "Inclination(deg)": 60.0,
        "Latitude(deg)": -28.135863148899496,
        "Longitude(deg)": 62.91314826781271,
        "Mean Anomaly(deg)": -147.2727,
        "RAAN(deg)": 325.0,
        "Satellite Name": "Test1 1443",
        "Satellite Number": 1443,
        "Semi-Major Axis(m)": 6980739.136638005,
        "Time(s)": 0
    },
    {
        "Altitude(m)": 612708.2681567159,
        "Argument of Periapsis(deg)": 0.00010418945913296404,
        "Eccentricity": 0.0,
        "Inclination(deg)": 60.0,
        "Latitude(deg)": -28.6476019261775,
        "Longitude(deg)": 63.27037902634447,
        "Mean Anomaly(deg)": -146.65259385453814,
        "RAAN(deg)": 324.99957995086027,
        "Satellite Name": "Test1 1443",
        "Satellite Number": 1443,
        "Semi-Major Axis(m)": 6980739.136638005,
        "Time(s)": 10
    },
    {
        "Altitude(m)": 612903.462324313,
        "Argument of Periapsis(deg)": 0.0002083789182659281,
        "Eccentricity": 0.0,
        "Inclination(deg)": 60.0,
        "Latitude(deg)": -29.15810055195517,
        "Longitude(deg)": 63.631476999182624,
        "Mean Anomaly(deg)": -146.03248770907626,
        "RAAN(deg)": 324.9991599017205,
        "Satellite Name": "Test1 1443",
        "Satellite Number": 1443,
        "Semi-Major Axis(m)": 6980739.136638005,
        "Time(s)": 20
    },
    {
        "Altitude(m)": 613099.4119622064,
        "Argument of Periapsis(deg)": 0.00031256837739889213,
        "Eccentricity": 0.0,
        "Inclination(deg)": 60.0,
        "Latitude(deg)": -29.667321957329392,
        "Longitude(deg)": 63.99655365656193,
        "Mean Anomaly(deg)": -145.4123815636145,
        "RAAN(deg)": 324.9987398525808,
        "Satellite Name": "Test1 1443",
        "Satellite Number": 1443,
        "Semi-Major Axis(m)": 6980739.136638005,
        "Time(s)": 30
    },
    {
        "Altitude(m)": 613296.045378649,
        "Argument of Periapsis(deg)": 0.0004167578365318562,
        "Eccentricity": 0.0,
        "Inclination(deg)": 60.0,
        "Latitude(deg)": -30.1752280826368,
        "Longitude(deg)": 64.3657234561286,
        "Mean Anomaly(deg)": -144.79227541815263,
        "RAAN(deg)": 324.99831980344106,
        "Satellite Name": "Test1 1443",
        "Satellite Number": 1443,
        "Semi-Major Axis(m)": 6980739.136638005,
        "Time(s)": 40
    },
    {
        "Altitude(m)": 613493.2904317358,
        "Argument of Periapsis(deg)": 0.0005209472956648203,
        "Eccentricity": 0.0,
        "Inclination(deg)": 60.0,
        "Latitude(deg)": -30.681779838946223,
        "Longitude(deg)": 64.73910290062858,
        "Mean Anomaly(deg)": -144.17216927269078,
        "RAAN(deg)": 324.9978997543013,
        "Satellite Name": "Test1 1443",
        "Satellite Number": 1443,
        "Semi-Major Axis(m)": 6980739.136638005,
        "Time(s)": 50
    },
    {
        "Altitude(m)": 613691.0745613308,
        "Argument of Periapsis(deg)": 0.0006251367547977843,
        "Eccentricity": 0.0,
        "Inclination(deg)": 60.0,
        "Latitude(deg)": -31.186937068210412,
        "Longitude(deg)": 65.11681110858163,
        "Mean Anomaly(deg)": -143.55206312722902,
        "RAAN(deg)": 324.9974797051615,
        "Satellite Name": "Test1 1443",
        "Satellite Number": 1443,
        "Semi-Major Axis(m)": 6980739.136638005,
        "Time(s)": 60
    },
    {
        "Altitude(m)": 613889.3248211233,
        "Argument of Periapsis(deg)": 0.0007293262139307483,
        "Eccentricity": 0.0,
        "Inclination(deg)": 60.0,
        "Latitude(deg)": -31.69065850203825,
        "Longitude(deg)": 65.49897038490502,
        "Mean Anomaly(deg)": -142.93195698176714,
        "RAAN(deg)": 324.9970596560218,
        "Satellite Name": "Test1 1443",
        "Satellite Number": 1443,
        "Semi-Major Axis(m)": 6980739.136638005,
        "Time(s)": 70
    },
    {
        "Altitude(m)": 614087.9679108849,
        "Argument of Periapsis(deg)": 0.0008335156730637124,
        "Eccentricity": 0.0,
        "Inclination(deg)": 60.0,
        "Latitude(deg)": -32.192901719049445,
        "Longitude(deg)": 65.88570527842616,
        "Mean Anomaly(deg)": -142.31185083630535,
        "RAAN(deg)": 324.996639606882,
        "Satellite Name": "Test1 1443",
        "Satellite Number": 1443,
        "Semi-Major Axis(m)": 6980739.136638005,
        "Time(s)": 80
    },
    {
        "Altitude(m)": 614286.9302088459,
        "Argument of Periapsis(deg)": 0.0009377051321966765,
        "Eccentricity": 0.0,
        "Inclination(deg)": 60.0,
        "Latitude(deg)": -32.69362310077269,
        "Longitude(deg)": 66.27714315182006,
        "Mean Anomaly(deg)": -141.6917446908435,
        "RAAN(deg)": 324.9962195577423,
        "Satellite Name": "Test1 1443",
        "Satellite Number": 1443,
        "Semi-Major Axis(m)": 6980739.136638005,
        "Time(s)": 90
    },
    {
        "Altitude(m)": 614486.1378042144,
        "Argument of Periapsis(deg)": 0.0010418945913296407,
        "Eccentricity": 0.0,
        "Inclination(deg)": 60.0,
        "Latitude(deg)": -33.19277778604909,
        "Longitude(deg)": 66.67341475086086,
        "Mean Anomaly(deg)": -141.07163854538166,
        "RAAN(deg)": 324.99579950860254,
        "Satellite Name": "Test1 1443",
        "Satellite Number": 1443,
        "Semi-Major Axis(m)": 6980739.136638005,
        "Time(s)": 100
    },
    {
        "Altitude(m)": 614685.5165298155,
        "Argument of Periapsis(deg)": 0.0011460840504626045,
        "Eccentricity": 0.0,
        "Inclination(deg)": 60.0,
        "Latitude(deg)": -33.690319623908046,
        "Longitude(deg)": 67.07465325985223,
        "Mean Anomaly(deg)": -140.45153239991987,
        "RAAN(deg)": 324.9953794594628,
        "Satellite Name": "Test1 1443",
        "Satellite Number": 1443,
        "Semi-Major Axis(m)": 6980739.136638005,
        "Time(s)": 110
    },
    {
        "Altitude(m)": 614884.9919948046,
        "Argument of Periapsis(deg)": 0.0012502735095955685,
        "Eccentricity": 0.0,
        "Inclination(deg)": 60.0,
        "Latitude(deg)": -34.18620112487901,
        "Longitude(deg)": 67.4809948686881,
        "Mean Anomaly(deg)": -139.831426254458,
        "RAAN(deg)": 324.9949594103231,
        "Satellite Name": "Test1 1443",
        "Satellite Number": 1443,
        "Semi-Major Axis(m)": 6980739.136638005,
        "Time(s)": 120
    },
    {
        "Altitude(m)": 615084.4896175001,
        "Argument of Periapsis(deg)": 0.0013544629687285324,
        "Eccentricity": 0.0,
        "Inclination(deg)": 60.0,
        "Latitude(deg)": -34.68037341070675,
        "Longitude(deg)": 67.89257933833963,
        "Mean Anomaly(deg)": -139.21132010899626,
        "RAAN(deg)": 324.99453936118334,
        "Satellite Name": "Test1 1443",
        "Satellite Number": 1443,
        "Semi-Major Axis(m)": 6980739.136638005,
        "Time(s)": 130
    },
    {
        "Altitude(m)": 615283.934658256,
        "Argument of Periapsis(deg)": 0.0014586524278614966,
        "Eccentricity": 0.0,
        "Inclination(deg)": 60.0,
        "Latitude(deg)": -35.172786162444254,
        "Longitude(deg)": 68.30954905153662,
        "Mean Anomaly(deg)": -138.5912139635344,
        "RAAN(deg)": 324.99411931204355,
        "Satellite Name": "Test1 1443",
        "Satellite Number": 1443,
        "Semi-Major Axis(m)": 6980739.136638005,
        "Time(s)": 140
    },
    {
        "Altitude(m)": 615483.252252408,
        "Argument of Periapsis(deg)": 0.0015628418869944607,
        "Eccentricity": 0.0,
        "Inclination(deg)": 60.0,
        "Latitude(deg)": -35.66338756689259,
        "Longitude(deg)": 68.7320495739822,
        "Mean Anomaly(deg)": -137.97110781807248,
        "RAAN(deg)": 324.9936992629039,
        "Satellite Name": "Test1 1443",
        "Satellite Number": 1443,
        "Semi-Major Axis(m)": 6980739.136638005,
        "Time(s)": 150
    },
    {
        "Altitude(m)": 615682.3674432265,
        "Argument of Periapsis(deg)": 0.0016670313461274247,
        "Eccentricity": 0.0,
        "Inclination(deg)": 60.0,
        "Latitude(deg)": -36.15212426136728,
        "Longitude(deg)": 69.16023021278225,
        "Mean Anomaly(deg)": -137.35100167261075,
        "RAAN(deg)": 324.9932792137641,
        "Satellite Name": "Test1 1443",
        "Satellite Number": 1443,
        "Semi-Major Axis(m)": 6980739.136638005,
        "Time(s)": 160
    },
    {
        "Altitude(m)": 615881.2052149298,
        "Argument of Periapsis(deg)": 0.0017712208052603888,
        "Eccentricity": 0.0,
        "Inclination(deg)": 60.0,
        "Latitude(deg)": -36.63894127677484,
        "Longitude(deg)": 69.59424305873037,
        "Mean Anomaly(deg)": -136.7308955271489,
        "RAAN(deg)": 324.99285916462435,
        "Satellite Name": "Test1 1443",
        "Satellite Number": 1443,
        "Semi-Major Axis(m)": 6980739.136638005,
        "Time(s)": 170
    },
    {
        "Altitude(m)": 616079.6905256867,
        "Argument of Periapsis(deg)": 0.001875410264393353,
        "Eccentricity": 0.0,
        "Inclination(deg)": 60.0,
        "Latitude(deg)": -37.12378197898138,
        "Longitude(deg)": 70.03424353764503,
        "Mean Anomaly(deg)": -136.11078938168703,
        "RAAN(deg)": 324.9924391154846,
        "Satellite Name": "Test1 1443",
        "Satellite Number": 1443,
        "Semi-Major Axis(m)": 6980739.136638005,
        "Time(s)": 180
    },
    {
        "Altitude(m)": 616277.7483405863,
        "Argument of Periapsis(deg)": 0.0019795997235263173,
        "Eccentricity": 0.0,
        "Inclination(deg)": 60.0,
        "Latitude(deg)": -37.60658800847029,
        "Longitude(deg)": 70.48039095729757,
        "Mean Anomaly(deg)": -135.49068323622524,
        "RAAN(deg)": 324.9920190663449,
        "Satellite Name": "Test1 1443",
        "Satellite Number": 1443,
        "Semi-Major Axis(m)": 6980739.136638005,
        "Time(s)": 190
    }
]